ORBCOMM-X [-]           
1 21576U 91050C   24079.18046950  .00000474  00000+0  15644-3 0  9998
2 21576  98.3981 147.8319 0004799 115.9819 244.1865 14.42401781716508
ORBCOMM FM01 [-]        
1 23545U 95017A   24079.50829421  .00006889  00000+0  94204-3 0  9996
2 23545  69.9667 117.9281 0009022 286.2431  73.7725 14.78916929545036
ORBCOMM FM02 [-]        
1 23546U 95017B   24079.52261461  .00005688  00000+0  78691-3 0  9991
2 23546  69.9689 137.2223 0010813 282.2856  77.7081 14.78518483544984
ORBCOMM FM08 [-]        
1 25112U 97084A   24079.86421883  .00002863  00000+0  90434-3 0  9992
2 25112  45.0161  22.6402 0006092 107.6492 252.5024 14.42175138375878
ORBCOMM FM10 [-]        
1 25113U 97084B   24079.93746098  .00002654  00000+0  84278-3 0  9996
2 25113  45.0176  24.1074 0004367  68.7815 291.3501 14.42094962375872
ORBCOMM FM11 [+]        
1 25114U 97084C   24079.25910736  .00002369  00000+0  75873-3 0  9998
2 25114  45.0158  27.3718 0005158  67.7143 292.4253 14.41974624375737
ORBCOMM FM12 [-]        
1 25115U 97084D   24079.21764515  .00002369  00000+0  75940-3 0  9992
2 25115  45.0165  27.2479 0004259  65.1978 294.9315 14.41945638375524
ORBCOMM FM09 [-]        
1 25116U 97084E   24079.29703352  .00002489  00000+0  79606-3 0  9999
2 25116  45.0168  27.5412 0005709  53.7522 306.3855 14.41913562375749
